GLOBALSTAR M024         
1 25883U 99043A   24285.13385613 -.00000117  00000+0 -18366-2 0  9998
2 25883  52.0003 222.5722 0002093  43.8156 328.9982 11.10160948 87233
GLOBALSTAR M027         
1 25884U 99043B   24285.13406956 -.00000092  00000+0 -10639-2 0  9990
2 25884  52.0216 293.4998 0021216 309.6436  50.2485 11.04370081113769
GLOBALSTAR M054         
1 25885U 99043C   24285.22705802 -.00000052  00000+0  48343-3 0  9992
2 25885  52.0113 102.3665 0006799 110.9110  59.8344 11.39205182 91004
GLOBALSTAR M053         
1 25886U 99043D   24285.10480583 -.00000053  00000+0  44977-3 0  9996
2 25886  52.0017  35.9341 0003452  31.0778 140.6929 11.27659246 91487
GLOBALSTAR M058         
1 25907U 99049A   24285.09084228 -.00000030  00000+0  72980-3 0  9990
2 25907  51.9956  54.3189 0002552 140.9631 219.1389 11.93184795123016
GLOBALSTAR M050         
1 25908U 99049B   24285.15075730 -.00000144  00000+0 -63304-3 0  9993
2 25908  51.9980  80.4395 0008256 253.0136 277.9116 12.07441471122838
GLOBALSTAR M033         
1 25909U 99049C   24284.85353920  .00000102  00000+0  18653-2 0  9998
2 25909  51.9934 330.3184 0013097 112.0213 248.2027 12.20285606505300
GLOBALSTAR M055         
1 25910U 99049D   24285.47596463 -.00000047  00000+0  40594-3 0  9999
2 25910  52.0051 351.4169 0006757 338.1873  21.8690 12.29411038137917
